[
    {
        "Altitude(m)": 607911.0011083694,
        "Argument of Periapsis(deg)": 0.0,
        "Eccentricity": 0.0,
        "Inclination(deg)": 60.0,
        "Latitude(deg)": -14.292899519271602,
        "Longitude(deg)": 168.44262664033334,
        "Mean Anomaly(deg)": 196.36359999999996,
        "RAAN(deg)": 80.0,
        "Satellite Name": "Test1 364",
        "Satellite Number": 364,
        "Semi-Major Axis(m)": 6980739.136638005,
        "Time(s)": 0
    },
    {
        "Altitude(m)": 608060.2345094007,
        "Argument of Periapsis(deg)": 0.00010418945913296404,
        "Eccentricity": 0.0,
        "Inclination(deg)": 60.0,
        "Latitude(deg)": -14.826561341826661,
        "Longitude(deg)": 168.7312352068991,
        "Mean Anomaly(deg)": 196.98370614546184,
        "RAAN(deg)": 79.99957995086025,
        "Satellite Name": "Test1 364",
        "Satellite Number": 364,
        "Semi-Major Axis(m)": 6980739.136638005,
        "Time(s)": 10
    }
]